start=new Date('2022-07-24T00:00:00.000Z').valueOf();
sats=[{"INCLINATION":"53.2136","OBJECT_ID":"2022-029J","NORAD_CAT_ID":"52096","RCS_SIZE":"LARGE","ARG_OF_PERICENTER":"45.9254","GP_ID":"208737964","COUNTRY_CODE":"US","SEMIMAJOR_AXIS":"6917.901","OBJECT_TYPE":"PAYLOAD","ELEMENT_SET_NO":"999","LAUNCH_DATE":"2022-03-19","OBJECT_NAME":"STARLINK-3717","DECAY_DATE":null,"CLASSIFICATION_TYPE":"U","FILE":"3520602","APOAPSIS":"541.062","REF_FRAME":"TEME","MEAN_MOTION":"15.08833156","TIME_SYSTEM":"UTC","BSTAR":"0.00001068800000","EPOCH":"2022-07-23T22:00:00.999936","SITE":"AFETR","REV_AT_EPOCH":"130","MEAN_MOTION_DOT":"-0.00000118","ECCENTRICITY":"0.00018730","EPHEMERIS_TYPE":"0","CENTER_NAME":"EARTH","MEAN_MOTION_DDOT":"0.0000000000000","PERIAPSIS":"538.471","RA_OF_ASC_NODE":"266.2551","TLE_LINE1":"1 52096U 22029J   22204.91667824 -.00000118  00000-0  10688-4 0  9998","MEAN_ANOMALY":"352.8552","MEAN_ELEMENT_THEORY":"SGP4","PERIOD":"95.438","TLE_LINE2":"2 52096  53.2136 266.2551 0001873  45.9254 352.8552 15.08833156  1303"},{"REF_FRAME":"TEME","FILE":"3520602","APOAPSIS":"540.754","TIME_SYSTEM":"UTC","BSTAR":"-0.00090689000000","MEAN_MOTION":"15.08841212","SITE":"AFETR","REV_AT_EPOCH":"130","EPOCH":"2022-07-23T22:00:00.999936","MEAN_MOTION_DOT":"-0.00014693","ECCENTRICITY":"0.00014630","CENTER_NAME":"EARTH","PERIAPSIS":"538.730","MEAN_MOTION_DDOT":"0.0000000000000","EPHEMERIS_TYPE":"0","MEAN_ELEMENT_THEORY":"SGP4","PERIOD":"95.437","TLE_LINE2":"2 52098  53.2185 276.2585 0001463  72.6738 191.1156 15.08841212  1302","RA_OF_ASC_NODE":"276.2585","TLE_LINE1":"1 52098U 22029L   22204.91667824 -.00014693  00000-0 -90689-3 0  9992","MEAN_ANOMALY":"191.1156","INCLINATION":"53.2185","OBJECT_ID":"2022-029L","RCS_SIZE":"LARGE","NORAD_CAT_ID":"52098","ARG_OF_PERICENTER":"72.6738","SEMIMAJOR_AXIS":"6917.877","GP_ID":"208738214","COUNTRY_CODE":"US","LAUNCH_DATE":"2022-03-19","OBJECT_TYPE":"PAYLOAD","ELEMENT_SET_NO":"999","DECAY_DATE":null,"OBJECT_NAME":"STARLINK-3665","CLASSIFICATION_TYPE":"U"},{"INCLINATION":"53.2168","OBJECT_ID":"2022-029N","RCS_SIZE":"LARGE","NORAD_CAT_ID":"52100","ARG_OF_PERICENTER":"86.0391","GP_ID":"208738466","COUNTRY_CODE":"US","SEMIMAJOR_AXIS":"6917.899","OBJECT_TYPE":"PAYLOAD","ELEMENT_SET_NO":"999","LAUNCH_DATE":"2022-03-19","OBJECT_NAME":"STARLINK-3702","DECAY_DATE":null,"CLASSIFICATION_TYPE":"U","FILE":"3520602","APOAPSIS":"540.554","REF_FRAME":"TEME","MEAN_MOTION":"15.08833787","TIME_SYSTEM":"UTC","BSTAR":"-0.00088882000000","EPOCH":"2022-07-23T22:00:00.999936","REV_AT_EPOCH":"130","SITE":"AFETR","MEAN_MOTION_DOT":"-0.00014403","ECCENTRICITY":"0.00011420","EPHEMERIS_TYPE":"0","CENTER_NAME":"EARTH","PERIAPSIS":"538.974","MEAN_MOTION_DDOT":"0.0000000000000","TLE_LINE1":"1 52100U 22029N   22204.91667824 -.00014403  00000-0 -88882-3 0  9997","RA_OF_ASC_NODE":"276.2511","MEAN_ANOMALY":"217.7299","PERIOD":"95.438","MEAN_ELEMENT_THEORY":"SGP4","TLE_LINE2":"2 52100  53.2168 276.2511 0001142  86.0391 217.7299 15.08833787  1305"},{"CLASSIFICATION_TYPE":"U","DECAY_DATE":null,"OBJECT_NAME":"STARLINK-3703","LAUNCH_DATE":"2022-03-19","ELEMENT_SET_NO":"999","OBJECT_TYPE":"PAYLOAD","SEMIMAJOR_AXIS":"6917.847","COUNTRY_CODE":"US","GP_ID":"208739216","ARG_OF_PERICENTER":"68.3254","RCS_SIZE":"LARGE","NORAD_CAT_ID":"52101","OBJECT_ID":"2022-029P","INCLINATION":"53.2172","TLE_LINE2":"2 52101  53.2172 276.2527 0001381  68.3254 275.3987 15.08850954  1303","MEAN_ELEMENT_THEORY":"SGP4","PERIOD":"95.437","MEAN_ANOMALY":"275.3987","TLE_LINE1":"1 52101U 22029P   22204.91667824 -.00039803  00000-0 -24959-2 0  9993","RA_OF_ASC_NODE":"276.2527","PERIAPSIS":"538.757","MEAN_MOTION_DDOT":"0.0000000000000","CENTER_NAME":"EARTH","EPHEMERIS_TYPE":"0","ECCENTRICITY":"0.00013810","MEAN_MOTION_DOT":"-0.00039803","REV_AT_EPOCH":"130","SITE":"AFETR","EPOCH":"2022-07-23T22:00:00.999936","TIME_SYSTEM":"UTC","BSTAR":"-0.00249590000000","MEAN_MOTION":"15.08850954","REF_FRAME":"TEME","APOAPSIS":"540.667","FILE":"3520602"},{"TIME_SYSTEM":"UTC","BSTAR":"-0.00012691000000","MEAN_MOTION":"15.08841963","REV_AT_EPOCH":"130","SITE":"AFETR","EPOCH":"2022-07-23T22:00:00.999936","REF_FRAME":"TEME","APOAPSIS":"540.989","FILE":"3520602","MEAN_MOTION_DDOT":"0.0000000000000","PERIAPSIS":"538.490","CENTER_NAME":"EARTH","EPHEMERIS_TYPE":"0","TLE_LINE2":"2 52102  53.2176 266.2404 0001806  39.9789 253.5366 15.08841963  1309","PERIOD":"95.437","MEAN_ELEMENT_THEORY":"SGP4","MEAN_ANOMALY":"253.5366","TLE_LINE1":"1 52102U 22029Q   22204.91667824 -.00002307  00000-0 -12691-3 0  9994","RA_OF_ASC_NODE":"266.2404","ECCENTRICITY":"0.00018060","MEAN_MOTION_DOT":"-0.00002307","SEMIMAJOR_AXIS":"6917.874","COUNTRY_CODE":"US","GP_ID":"208737465","OBJECT_ID":"2022-029Q","INCLINATION":"53.2176","ARG_OF_PERICENTER":"39.9789","RCS_SIZE":"LARGE","NORAD_CAT_ID":"52102","DECAY_DATE":null,"OBJECT_NAME":"STARLINK-3709","CLASSIFICATION_TYPE":"U","LAUNCH_DATE":"2022-03-19","ELEMENT_SET_NO":"999","OBJECT_TYPE":"PAYLOAD"},{"TIME_SYSTEM":"UTC","BSTAR":"0.00007406700000","MEAN_MOTION":"15.08853697","SITE":"AFETR","REV_AT_EPOCH":"130","EPOCH":"2022-07-23T22:00:00.999936","REF_FRAME":"TEME","FILE":"3520602","APOAPSIS":"540.947","PERIAPSIS":"538.460","MEAN_MOTION_DDOT":"0.0000000000000","CENTER_NAME":"EARTH","EPHEMERIS_TYPE":"0","TLE_LINE2":"2 52103  53.2144 266.2582 0001797  51.2460  27.4311 15.08853697  1309","MEAN_ELEMENT_THEORY":"SGP4","PERIOD":"95.437","MEAN_ANOMALY":"27.4311","TLE_LINE1":"1 52103U 22029R   22204.91667824  .00000891  00000-0  74067-4 0  9995","RA_OF_ASC_NODE":"266.2582","ECCENTRICITY":"0.00017970","MEAN_MOTION_DOT":"0.00000891","SEMIMAJOR_AXIS":"6917.839","COUNTRY_CODE":"US","GP_ID":"208737715","OBJECT_ID":"2022-029R","INCLINATION":"53.2144","ARG_OF_PERICENTER":"51.2460","NORAD_CAT_ID":"52103","RCS_SIZE":"LARGE","DECAY_DATE":null,"OBJECT_NAME":"STARLINK-3705","CLASSIFICATION_TYPE":"U","LAUNCH_DATE":"2022-03-19","ELEMENT_SET_NO":"999","OBJECT_TYPE":"PAYLOAD"},{"MEAN_MOTION_DDOT":"0.0000000000000","PERIAPSIS":"538.770","CENTER_NAME":"EARTH","EPHEMERIS_TYPE":"0","TLE_LINE2":"2 52105  53.2131 266.2521 0001397  43.8142  69.7028 15.08842906  1305","MEAN_ELEMENT_THEORY":"SGP4","PERIOD":"95.437","MEAN_ANOMALY":"69.7028","TLE_LINE1":"1 52105U 22029T   22204.91667824  .00001028  00000-0  82675-4 0  9994","RA_OF_ASC_NODE":"266.2521","ECCENTRICITY":"0.00013970","MEAN_MOTION_DOT":"0.00001028","TIME_SYSTEM":"UTC","BSTAR":"0.00008267500000","MEAN_MOTION":"15.08842906","SITE":"AFETR","REV_AT_EPOCH":"130","EPOCH":"2022-07-23T22:00:00.999936","REF_FRAME":"TEME","APOAPSIS":"540.703","FILE":"3520602","DECAY_DATE":null,"OBJECT_NAME":"STARLINK-3706","CLASSIFICATION_TYPE":"U","LAUNCH_DATE":"2022-03-19","ELEMENT_SET_NO":"999","OBJECT_TYPE":"PAYLOAD","SEMIMAJOR_AXIS":"6917.872","COUNTRY_CODE":"US","GP_ID":"208738966","OBJECT_ID":"2022-029T","INCLINATION":"53.2131","ARG_OF_PERICENTER":"43.8142","RCS_SIZE":"LARGE","NORAD_CAT_ID":"52105"},{"OBJECT_NAME":"STARLINK-3670","DECAY_DATE":null,"CLASSIFICATION_TYPE":"U","ELEMENT_SET_NO":"999","OBJECT_TYPE":"PAYLOAD","LAUNCH_DATE":"2022-03-19","COUNTRY_CODE":"US","GP_ID":"208738717","SEMIMAJOR_AXIS":"6917.810","OBJECT_ID":"2022-029U","INCLINATION":"53.2166","ARG_OF_PERICENTER":"67.3916","RCS_SIZE":"LARGE","NORAD_CAT_ID":"52106","EPHEMERIS_TYPE":"0","MEAN_MOTION_DDOT":"0.0000000000000","PERIAPSIS":"538.711","CENTER_NAME":"EARTH","MEAN_ANOMALY":"296.3075","TLE_LINE1":"1 52106U 22029U   22204.91667824 -.00013853  00000-0 -85343-3 0  9990","RA_OF_ASC_NODE":"276.2490","TLE_LINE2":"2 52106  53.2166 276.2490 0001393  67.3916 296.3075 15.08863003  1307","MEAN_ELEMENT_THEORY":"SGP4","PERIOD":"95.436","ECCENTRICITY":"0.00013930","MEAN_MOTION_DOT":"-0.00013853","MEAN_MOTION":"15.08863003","TIME_SYSTEM":"UTC","BSTAR":"-0.00085343000000","EPOCH":"2022-07-23T22:00:00.999936","SITE":"AFETR","REV_AT_EPOCH":"130","FILE":"3520602","APOAPSIS":"540.639","REF_FRAME":"TEME"},{"LAUNCH_DATE":"2022-03-19","ELEMENT_SET_NO":"999","OBJECT_TYPE":"PAYLOAD","DECAY_DATE":null,"OBJECT_NAME":"STARLINK-3658","CLASSIFICATION_TYPE":"U","OBJECT_ID":"2022-029V","INCLINATION":"53.2144","ARG_OF_PERICENTER":"39.3269","NORAD_CAT_ID":"52107","RCS_SIZE":"LARGE","SEMIMAJOR_AXIS":"6917.932","COUNTRY_CODE":"US","GP_ID":"208737965","ECCENTRICITY":"0.00019800","MEAN_MOTION_DOT":"-0.00005210","MEAN_MOTION_DDOT":"0.0000000000000","PERIAPSIS":"538.427","CENTER_NAME":"EARTH","EPHEMERIS_TYPE":"0","TLE_LINE2":"2 52107  53.2144 266.2490 0001980  39.3269  99.4536 15.08823258  1307","MEAN_ELEMENT_THEORY":"SGP4","PERIOD":"95.439","MEAN_ANOMALY":"99.4536","RA_OF_ASC_NODE":"266.2490","TLE_LINE1":"1 52107U 22029V   22204.91667824 -.00005210  00000-0 -30961-3 0  9995","REF_FRAME":"TEME","APOAPSIS":"541.166","FILE":"3520602","TIME_SYSTEM":"UTC","BSTAR":"-0.00030961000000","MEAN_MOTION":"15.08823258","SITE":"AFETR","REV_AT_EPOCH":"130","EPOCH":"2022-07-23T22:00:00.999936"},{"MEAN_MOTION":"15.08831439","BSTAR":"0.00009946800000","TIME_SYSTEM":"UTC","EPOCH":"2022-07-23T22:00:00.999936","SITE":"AFETR","REV_AT_EPOCH":"130","APOAPSIS":"540.943","FILE":"3520602","REF_FRAME":"TEME","EPHEMERIS_TYPE":"0","MEAN_MOTION_DDOT":"0.0000000000000","PERIAPSIS":"538.600","CENTER_NAME":"EARTH","MEAN_ANOMALY":"57.2527","RA_OF_ASC_NODE":"266.2553","TLE_LINE1":"1 52108U 22029W   22204.91667824  .00001295  00000-0  99468-4 0  9991","TLE_LINE2":"2 52108  53.2137 266.2553 0001694  41.4801  57.2527 15.08831439  1300","PERIOD":"95.438","MEAN_ELEMENT_THEORY":"SGP4","ECCENTRICITY":"0.00016940","MEAN_MOTION_DOT":"0.00001295","COUNTRY_CODE":"US","GP_ID":"208738215","SEMIMAJOR_AXIS":"6917.907","OBJECT_ID":"2022-029W","INCLINATION":"53.2137","ARG_OF_PERICENTER":"41.4801","NORAD_CAT_ID":"52108","RCS_SIZE":"LARGE","OBJECT_NAME":"STARLINK-3698","DECAY_DATE":null,"CLASSIFICATION_TYPE":"U","ELEMENT_SET_NO":"999","OBJECT_TYPE":"PAYLOAD","LAUNCH_DATE":"2022-03-19"}];
